STARLINK-34562          
1 64725U 25144B   25208.58335648 -.01831197  00000+0 -47552-1 0  9994
2 64725  53.1608 148.7220 0001255  96.9069  50.6906 15.41646608  5197
STARLINK-34557          
1 64726U 25144C   25208.58335648 -.01834110  00000+0 -47646-1 0  9997
2 64726  53.1609 148.7185 0001162 108.1972  41.2765 15.41641087  5213
STARLINK-34242          
1 64727U 25144D   25208.58335648  .00076772  00000+0  13763-2 0  9991
2 64727  53.1609 148.6531 0001244  83.1345  99.2461 15.49279510  5217
STARLINK-34239          
1 64728U 25144E   25208.58335648  .00039527  00000+0  71590-3 0  9992
2 64728  53.1610 148.6483 0001198  83.3544 100.9475 15.49279608  5287
STARLINK-34588          
1 64729U 25144F   25208.58335648 -.01576938  00000+0 -38726-1 0  9990
2 64729  53.1606 148.6816 0001496  73.3756  94.7682 15.43337371  5217
STARLINK-34606          
1 64730U 25144G   25208.58335648 -.01579242  00000+0 -38794-1 0  9998
2 64730  53.1604 148.6775 0001410  69.8687 100.1573 15.43334197  5214
STARLINK-34552          
1 64731U 25144H   25208.58335648  .00040553  00000+0  73420-3 0  9991
2 64731  53.1609 148.6365 0001152  89.1756 100.8832 15.49278205  5218
STARLINK-34596          
1 64732U 25144J   25208.58335648 -.00050757  00000+0 -90946-3 0  9993
2 64732  53.1609 148.6329 0001183  80.0908 111.8688 15.49340346  5286
STARLINK-34556          
1 64733U 25144K   25208.58335648  .00038517  00000+0  69790-3 0  9995
2 64733  53.1609 148.6287 0001185  89.8224 104.0692 15.49279677  5210
STARLINK-34591          
1 64734U 25144L   25208.58335648 -.01632040  00000+0 -37760-1 0  9990
2 64734  53.1603 148.6425 0001488  78.7227 108.3946 15.45190493  5195
STARLINK-34587          
1 64735U 25144M   25208.58335648  .00039609  00000+0  71749-3 0  9997
2 64735  53.1609 148.6204 0001194  87.8097 109.9269 15.49273851  5163
STARLINK-34130          
1 64736U 25144N   25208.58335648  .00040592  00000+0  73497-3 0  9993
2 64736  53.1609 148.6161 0001092  90.5926 109.0614 15.49275279  5212
STARLINK-34619          
1 64737U 25144P   25208.58335648  .00037711  00000+0  68363-3 0  9999
2 64737  53.1608 148.6122 0001210  90.2683 111.3013 15.49275718  5215
STARLINK-34597          
1 64738U 25144Q   25208.58335648 -.01630054  00000+0 -35158-1 0  9996
2 64738  53.1604 148.6134 0001419  91.3583 109.8510 15.47207868  5197
STARLINK-34471          
1 64739U 25144R   25208.58335648  .00043504  00000+0  78683-3 0  9994
2 64739  53.1608 148.6041 0001120  92.5338 112.8670 15.49275575  5158
STARLINK-34208          
1 64740U 25144S   25208.58335648  .00062826  00000+0  11305-2 0  9991
2 64740  53.1607 148.6004 0001072  93.1808 114.1508 15.49261188  5210
STARLINK-34205          
1 64741U 25144T   25208.58335648 -.01622980  00000+0 -32563-1 0  9996
2 64741  53.1607 148.5966 0001246  89.1215 120.0874 15.49247976  5218
STARLINK-34607          
1 64742U 25144U   25208.58335648  .00037302  00000+0  67635-3 0  9992
2 64742  53.1606 148.5919 0001146  91.3304 119.8268 15.49274583  5193
STARLINK-34236          
1 64743U 25144V   25208.58335648  .00035445  00000+0  64319-3 0  9995
2 64743  53.1607 148.5884 0001175  99.9602 113.1110 15.49276494  5212
STARLINK-34185          
1 64744U 25144W   25208.58335648  .00043164  00000+0  78076-3 0  9998
2 64744  53.1607 148.5841 0001176  96.7316 118.2529 15.49275700  5213
STARLINK-34581          
1 64745U 25144X   25208.58335648  .00035214  00000+0  63906-3 0  9992
2 64745  53.1606 148.5800 0001244  97.1466 119.7561 15.49277320  5217
STARLINK-34592          
1 64746U 25144Y   25208.58335648  .00036283  00000+0  65809-3 0  9994
2 64746  53.1606 148.5762 0001160  95.8372 122.9822 15.49278549  5213
STARLINK-34589          
1 64747U 25144Z   25208.53602296  .00074889  00000+0  11556-2 0  9999
2 64747  53.1609 148.7115 0001625  76.6064 283.5128 15.53496231  5210
STARLINK-34536          
1 64748U 25144AA  25208.58335648  .00036035  00000+0  65368-3 0  9991
2 64748  53.1605 148.5681 0001262  97.2675 125.3862 15.49278278  5286
STARLINK-34595          
1 64749U 25144AB  25208.58335648  .00038724  00000+0  70191-3 0  9999
2 64749  53.1605 148.5606 0001175  88.2271 138.2835 15.49266680  5219
STARLINK-34531          
1 64750U 25144AC  25208.58335648 -.01890014  00000+0 -48227-1 0  9995
2 64750  53.1601 148.6174 0001493 117.3779  80.4757 15.42268936  5285
PROGRESS-MS 31          
1 64751U 25146A   25208.42365869  .00012658  00000+0  22826-3 0  9995
2 64751  51.6346 107.6436 0001982 121.6825 238.4357 15.50142938  2835
SHIYAN-28B 01           
1 64753U 25145A   25208.60718892  .00000633  00000+0  77981-4 0  9997
2 64753  10.9992 281.6334 0003190 343.2903  16.7220 14.29202212  3401
CZ-4C R/B               
1 64754U 25145B   25208.56567749  .00001036  00000+0  97124-4 0  9995
2 64754  10.9859 274.7436 0122280 316.6204  42.4462 14.56364727  3415
STARLINK-33965          
1 64755U 25147A   25208.58335648 -.01598426  00000+0 -25431-1 0  9997
2 64755  53.1599 212.5923 0001105  63.4071  68.2907 15.55585233  4315
STARLINK-34371          
1 64756U 25147B   25208.58335648 -.01601835  00000+0 -25490-1 0  9992
2 64756  53.1600 212.5885 0001106  60.0765  73.5386 15.55586410  4228
STARLINK-34401          
1 64757U 25147C   25208.58335648 -.01598397  00000+0 -25429-1 0  9993
2 64757  53.1602 212.5848 0000983  54.9329  80.5960 15.55587806  4169
STARLINK-34593          
1 64758U 25147D   25208.58335648 -.01597340  00000+0 -25412-1 0  9993
2 64758  53.1598 212.5805 0001136  63.4977  73.9518 15.55584812  4273
STARLINK-34598          
1 64759U 25147E   25208.58335648 -.01608907  00000+0 -25611-1 0  9997
2 64759  53.1601 212.5762 0000961  61.8549  77.5078 15.55591601  4223
STARLINK-34235          
1 64760U 25147F   25208.58335648 -.01607408  00000+0 -25585-1 0  9994
2 64760  53.1603 212.5722 0000993  61.7954  79.4842 15.55590854  4316
STARLINK-34635          
1 64761U 25147G   25208.58335648 -.01595976  00000+0 -25387-1 0  9991
2 64761  53.1599 212.5684 0001082  59.3283  83.8695 15.55586273  4276
STARLINK-34638          
1 64762U 25147H   25208.58335648 -.01606202  00000+0 -25564-1 0  9994
2 64762  53.1599 212.5646 0001190  61.8999  83.2153 15.55588921  4272
STARLINK-34534          
1 64763U 25147J   25208.58335648 -.01605571  00000+0 -25554-1 0  9992
2 64763  53.1600 212.5600 0000956  57.5612  89.4695 15.55589657  4220
STARLINK-34261          
1 64764U 25147K   25208.58335648 -.01603160  00000+0 -25512-1 0  9999
2 64764  53.1600 212.5563 0001095  60.1525  88.7955 15.55587944  4315
STARLINK-34566          
1 64765U 25147L   25208.58335648 -.01620039  00000+0 -25806-1 0  9990
2 64765  53.1600 212.5521 0001160  61.0206  89.8467 15.55591709  4278
STARLINK-34645          
1 64766U 25147M   25208.58335648 -.01606837  00000+0 -25578-1 0  9997
2 64766  53.1599 212.5482 0000861  61.5100  91.2692 15.55588679  4221
STARLINK-34639          
1 64767U 25147N   25208.58335648 -.01616888  00000+0 -25750-1 0  9997
2 64767  53.1598 212.5438 0001142  56.3420  98.3551 15.55592181  4227
STARLINK-34609          
1 64768U 25147P   25208.58335648 -.01628834  00000+0 -25957-1 0  9991
2 64768  53.1598 212.5402 0001205  67.3033  89.3128 15.55596090  4224
STARLINK-34246          
1 64769U 25147Q   25208.58335648 -.01630634  00000+0 -25989-1 0  9998
2 64769  53.1601 212.5363 0001057  58.6392  99.8921 15.55597212  4271
STARLINK-34618          
1 64770U 25147R   25208.58335648 -.01631445  00000+0 -26001-1 0  9997
2 64770  53.1599 212.5322 0001348  67.2466  93.2026 15.55597158  4166
STARLINK-34541          
1 64771U 25147S   25208.58335648 -.01622373  00000+0 -25845-1 0  9993
2 64771  53.1597 212.5283 0001069  56.9672 105.3970 15.55594843  4155
STARLINK-34652          
1 64772U 25147T   25208.58335648 -.01615325  00000+0 -25723-1 0  9998
2 64772  53.1597 212.5239 0001170  61.7247 102.5593 15.55591296  4274
STARLINK-34612          
1 64773U 25147U   25208.58335648 -.01639980  00000+0 -26148-1 0  9994
2 64773  53.1598 212.5198 0001318  71.2820  94.9160 15.55601736  4227
STARLINK-34621          
1 64774U 25147V   25208.58335648 -.01606266  00000+0 -25567-1 0  9990
2 64774  53.1600 212.5156 0001086  55.0678 113.0494 15.55587813  4164
STARLINK-34657          
1 64775U 25147W   25208.58335648 -.01590074  00000+0 -25284-1 0  9996
2 64775  53.1602 212.5118 0001068  56.7282 113.3042 15.55585328  4277
STARLINK-34637          
1 64776U 25147X   25208.58335648 -.01592340  00000+0 -25324-1 0  9990
2 64776  53.1604 212.5077 0001166  57.4365 114.5141 15.55584447  4165
STARLINK-34547          
1 64777U 25147Y   25208.58335648 -.01617057  00000+0 -25754-1 0  9991
2 64777  53.1598 212.5036 0001033  61.4847 112.3820 15.55592026  4179
STARLINK-34537          
1 64778U 25147Z   25208.58335648  .00026106  00000+0  15178-3 0  9999
2 64778  53.1549 211.7106 0001222  75.1097 125.5423 15.78342966  4271
STARLINK-34585          
1 64779U 25147AA  25208.58335648 -.01613282  00000+0 -25688-1 0  9995
2 64779  53.1599 212.4953 0001055  58.7168 118.9833 15.55591104  4226
STARLINK-34491          
1 64780U 25147AB  25208.58335648 -.01634060  00000+0 -26047-1 0  9994
2 64780  53.1600 212.4917 0001184  63.6686 115.9478 15.55598888  4277
STARLINK-34582          
1 64781U 25147AC  25208.58335648 -.01615217  00000+0 -25721-1 0  9996
2 64781  53.1598 212.4875 0001105  57.6238 123.9099 15.55591938  4161
STARLINK-34482          
1 64782U 25147AD  25208.58335648 -.01615426  00000+0 -25725-1 0  9993
2 64782  53.1597 212.4832 0001090  57.7335 125.7186 15.55591730  4310
CZ-4C DEB               
1 64783U 25145C   25208.42880691  .00052211  00000+0  21436-1 0  9997
2 64783  10.9832 284.1970 0034947  88.8830 271.5401 14.25055669  2641
DROR 1                  
1 64784U 25148A   25206.78377979 -.00000166  00000+0  00000+0 0  9993
2 64784   0.2701 200.6196 0785740 182.7724 266.5683  0.88344495   132
